{
  "norad_id": 39191,
  "name": "O3B PFM",
  "history": [
    {
      "epoch": "2026-03-21T21:17:09.784320Z",
      "apogee_km": 8073.567869150501,
      "perigee_km": 8058.183262486397,
      "latitude_deg": -0.005923051583009833,
      "longitude_deg": -138.69219828325143,
      "height_km": 8057.002317857054,
      "semi_major_axis_km": 14444.01256581845,
      "eccentricity": 0.00053256,
      "inclination_deg": 0.0686,
      "raan_deg": 5.4871,
      "arg_perigee_deg": 11.7167,
      "mean_anomaly_deg": 342.8128,
      "mean_motion_rev_day": 5.00116261
    },
    {
      "epoch": "2026-03-29T01:59:30.399936Z",
      "apogee_km": 8073.906135580758,
      "perigee_km": 8057.88770196484,
      "latitude_deg": -0.005698665109881131,
      "longitude_deg": 143.6291551009717,
      "height_km": 8057.315724582402,
      "semi_major_axis_km": 14444.033918772799,
      "eccentricity": 0.0005545,
      "inclination_deg": 0.0691,
      "raan_deg": 4.8412,
      "arg_perigee_deg": 23.4012,
      "mean_anomaly_deg": 331.783,
      "mean_motion_rev_day": 5.00115152
    },
    {
      "epoch": "2026-03-30T01:58:41.583072Z",
      "apogee_km": 8073.5708746673545,
      "perigee_km": 8058.187997163105,
      "latitude_deg": -0.00525202439338418,
      "longitude_deg": 142.84741522809574,
      "height_km": 8057.0682355144445,
      "semi_major_axis_km": 14444.01643591523,
      "eccentricity": 0.0005325,
      "inclination_deg": 0.0699,
      "raan_deg": 4.7041,
      "arg_perigee_deg": 13.9892,
      "mean_anomaly_deg": 341.3218,
      "mean_motion_rev_day": 5.0011606
    },
    {
      "epoch": "2026-03-30T06:46:32.145600Z",
      "apogee_km": 8073.560301768487,
      "perigee_km": 8058.199378739212,
      "latitude_deg": -0.0051272420417758195,
      "longitude_deg": 70.68965424354411,
      "height_km": 8057.088045969699,
      "semi_major_axis_km": 14444.01684025385,
      "eccentricity": 0.00053174,
      "inclination_deg": 0.0699,
      "raan_deg": 4.6739,
      "arg_perigee_deg": 14.2304,
      "mean_anomaly_deg": 341.111,
      "mean_motion_rev_day": 5.00116039
    },
    {
      "epoch": "2026-03-30T16:22:13.246464Z",
      "apogee_km": 8073.562324017431,
      "perigee_km": 8058.1979341169,
      "latitude_deg": -0.004871764695030787,
      "longitude_deg": -73.62551550541625,
      "height_km": 8057.099110934758,
      "semi_major_axis_km": 14444.017129067166,
      "eccentricity": 0.00053186,
      "inclination_deg": 0.0699,
      "raan_deg": 4.6205,
      "arg_perigee_deg": 14.5728,
      "mean_anomaly_deg": 340.8226,
      "mean_motion_rev_day": 5.00116024
    }
  ]
}